[{"OBJECT_NAME":"STARLINK-30325","OBJECT_ID":"2023-129V","EPOCH":"2026-03-09T12:16:10.040448","MEAN_MOTION":15.26741436,"ECCENTRICITY":9.292e-5,"INCLINATION":43.0013,"RA_OF_ASC_NODE":119.0461,"ARG_OF_PERICENTER":281.5541,"MEAN_ANOMALY":78.5206,"EPHEMERIS_TYPE":0,"CLASSIFICATION_TYPE":"U","NORAD_CAT_ID":57717,"ELEMENT_SET_NO":999,"REV_AT_EPOCH":14065,"BSTAR":-1.7614466e-5,"MEAN_MOTION_DOT":-7.32e-6,"MEAN_MOTION_DDOT":0},{"OBJECT_NAME":"HAWK-11B","OBJECT_ID":"2024-247C","EPOCH":"2026-03-09T10:44:06.809856","MEAN_MOTION":15.2884707,"ECCENTRICITY":0.00046902,"INCLINATION":45.0161,"RA_OF_ASC_NODE":115.761,"ARG_OF_PERICENTER":333.0326,"MEAN_ANOMALY":27.0314,"EPHEMERIS_TYPE":0,"CLASSIFICATION_TYPE":"U","NORAD_CAT_ID":62379,"ELEMENT_SET_NO":999,"REV_AT_EPOCH":6773,"BSTAR":0.00032841927,"MEAN_MOTION_DOT":9.093e-5,"MEAN_MOTION_DDOT":0}]
