STARLINK-30325          
1 57717U 23129V   26068.51122732 -.00000732  00000+0 -17614-4 0  9995
2 57717  43.0013 119.0461 0000929 281.5541  78.5206 15.26741436140651
HAWK-11B                
1 62379U 24247C   26068.44730104  .00009093  00000+0  32842-3 0  9993
2 62379  45.0161 115.7610 0004690 333.0326  27.0314 15.28847070 67738
